{
    "links": {
        "self": "http://www.neowsapp.com/rest/v1/neo/3989177?api_key=iIulBulltgU6a56xZRHN4H3l9WmuAYTsLGpBGhQ2"
    },
    "id": "3989177",
    "neo_reference_id": "3989177",
    "name": "(2020 BX7)",
    "designation": "2020 BX7",
    "nasa_jpl_url": "http://ssd.jpl.nasa.gov/sbdb.cgi?sstr=3989177",
    "absolute_magnitude_h": 24.931,
    "estimated_diameter": {
        "kilometers": {
            "estimated_diameter_min": 0.0274381595,
            "estimated_diameter_max": 0.0613535899
        },
        "meters": {
            "estimated_diameter_min": 27.4381595158,
            "estimated_diameter_max": 61.3535898548
        },
        "miles": {
            "estimated_diameter_min": 0.0170492766,
            "estimated_diameter_max": 0.0381233415
        },
        "feet": {
            "estimated_diameter_min": 90.0202112658,
            "estimated_diameter_max": 201.2913117392
        }
    },
    "is_potentially_hazardous_asteroid": false,
    "close_approach_data": [
        {
            "close_approach_date": "2009-09-28",
            "close_approach_date_full": "2009-Sep-28 11:48",
            "epoch_date_close_approach": 1254138480000,
            "relative_velocity": {
                "kilometers_per_second": "4.6637022233",
                "kilometers_per_hour": "16789.3280037481",
                "miles_per_hour": "10432.2355032178"
            },
            "miss_distance": {
                "astronomical": "1.1646033087",
                "lunar": "453.0306870843",
                "kilometers": "174222174.376472469",
                "miles": "108256639.2304753122"
            },
            "orbiting_body": "Juptr"
        },
        {
            "close_approach_date": "2020-02-18",
            "close_approach_date_full": "2020-Feb-18 19:46",
            "epoch_date_close_approach": 1582055160000,
            "relative_velocity": {
                "kilometers_per_second": "5.0949688561",
                "kilometers_per_hour": "18341.8878820316",
                "miles_per_hour": "11396.9358342546"
            },
            "miss_distance": {
                "astronomical": "0.163087895",
                "lunar": "63.441191155",
                "kilometers": "24397601.71478365",
                "miles": "15159966.72856837"
            },
            "orbiting_body": "Earth"
        },
        {
            "close_approach_date": "2021-12-24",
            "close_approach_date_full": "2021-Dec-24 17:21",
            "epoch_date_close_approach": 1640366460000,
            "relative_velocity": {
                "kilometers_per_second": "6.9336486043",
                "kilometers_per_hour": "24961.1349755444",
                "miles_per_hour": "15509.8785629987"
            },
            "miss_distance": {
                "astronomical": "1.6818669408",
                "lunar": "654.2462399712",
                "kilometers": "251603711.967096096",
                "miles": "156339297.0668182848"
            },
            "orbiting_body": "Juptr"
        }
    ],
    "orbital_data": {
        "orbit_id": "6",
        "orbit_determination_date": "2020-03-05 05:04:29",
        "first_observation_date": "2020-01-21",
        "last_observation_date": "2020-03-04",
        "data_arc_in_days": 43,
        "observations_used": 33,
        "orbit_uncertainty": "7",
        "minimum_orbit_intersection": ".162957",
        "jupiter_tisserand_invariant": "3.158",
        "epoch_osculation": "2459000.5",
        "eccentricity": ".5607036388067946",
        "semi_major_axis": "2.619416435119944",
        "inclination": "4.144475485039517",
        "ascending_node_longitude": "138.3750892523943",
        "orbital_period": "1548.478747049516",
        "perihelion_distance": "1.150700108397869",
        "perihelion_argument": "9.989274413941333",
        "aphelion_distance": "4.08813276184202",
        "perihelion_time": "2458897.629167541904",
        "mean_anomaly": "23.91605293613385",
        "mean_motion": ".2324862389528736",
        "equinox": "J2000",
        "orbit_class": {
            "orbit_class_type": "AMO",
            "orbit_class_description": "Near-Earth asteroid orbits similar to that of 1221 Amor",
            "orbit_class_range": "1.017 AU < q (perihelion) < 1.3 AU"
        }
    },
    "is_sentry_object": false
}